start=new Date('2022-07-21T00:00:00.000Z').valueOf();
sats=[{"GP_ID":"208532718","TLE_LINE2":"2 46075  53.0535 298.5370 0001422  74.0328 286.0818 15.06415092109132","CENTER_NAME":"EARTH","MEAN_MOTION":"15.06415092","DECAY_DATE":null,"TIME_SYSTEM":"UTC","REF_FRAME":"TEME","MEAN_MOTION_DDOT":"0.0000000000000","MEAN_ANOMALY":"286.0818","ELEMENT_SET_NO":"999","MEAN_ELEMENT_THEORY":"SGP4","FILE":"3518363","EPHEMERIS_TYPE":"0","NORAD_CAT_ID":"46075","APOAPSIS":"548.152","OBJECT_NAME":"STARLINK-1551","RA_OF_ASC_NODE":"298.5370","INCLINATION":"53.0535","COUNTRY_CODE":"US","OBJECT_ID":"2020-055BA","EPOCH":"2022-07-20T14:54:47.247552","ECCENTRICITY":"0.00014220","PERIOD":"95.591","REV_AT_EPOCH":"10913","CLASSIFICATION_TYPE":"U","SITE":"AFETR","TLE_LINE1":"1 46075U 20055BA  22201.62138018  .00004424  00000-0  31561-3 0  9993","MEAN_MOTION_DOT":"0.00004424","OBJECT_TYPE":"PAYLOAD","PERIAPSIS":"546.183","BSTAR":"0.00031561000000","ARG_OF_PERICENTER":"74.0328","RCS_SIZE":"LARGE","SEMIMAJOR_AXIS":"6925.302","LAUNCH_DATE":"2020-08-07"},{"MEAN_ELEMENT_THEORY":"SGP4","ELEMENT_SET_NO":"999","MEAN_ANOMALY":"310.3343","FILE":"3518225","EPHEMERIS_TYPE":"0","NORAD_CAT_ID":"46076","APOAPSIS":"548.372","OBJECT_NAME":"STARLINK-1552","RA_OF_ASC_NODE":"297.8480","GP_ID":"208509620","TLE_LINE2":"2 46076  53.0541 297.8480 0001715  49.7796 310.3343 15.06409666108624","CENTER_NAME":"EARTH","MEAN_MOTION":"15.06409666","DECAY_DATE":null,"MEAN_MOTION_DDOT":"0.0000000000000","TIME_SYSTEM":"UTC","REF_FRAME":"TEME","MEAN_MOTION_DOT":"0.00002000","OBJECT_TYPE":"PAYLOAD","PERIAPSIS":"545.996","BSTAR":"0.00015306000000","ARG_OF_PERICENTER":"49.7796","RCS_SIZE":"LARGE","LAUNCH_DATE":"2020-08-07","SEMIMAJOR_AXIS":"6925.319","INCLINATION":"53.0541","COUNTRY_CODE":"US","EPOCH":"2022-07-20T18:43:01.555968","OBJECT_ID":"2020-055BB","PERIOD":"95.592","ECCENTRICITY":"0.00017150","REV_AT_EPOCH":"10862","TLE_LINE1":"1 46076U 20055BB  22201.77987912  .00002000  00000-0  15306-3 0  9992","CLASSIFICATION_TYPE":"U","SITE":"AFETR"},{"APOAPSIS":"548.167","OBJECT_NAME":"STARLINK-1559","RA_OF_ASC_NODE":"298.8233","ELEMENT_SET_NO":"999","MEAN_ANOMALY":"285.8441","MEAN_ELEMENT_THEORY":"SGP4","FILE":"3518111","EPHEMERIS_TYPE":"0","NORAD_CAT_ID":"46077","MEAN_MOTION":"15.06413242","DECAY_DATE":null,"TIME_SYSTEM":"UTC","REF_FRAME":"TEME","MEAN_MOTION_DDOT":"0.0000000000000","GP_ID":"208500734","CENTER_NAME":"EARTH","TLE_LINE2":"2 46077  53.0541 298.8233 0001435  74.2707 285.8441 15.06413242109087","SEMIMAJOR_AXIS":"6925.308","LAUNCH_DATE":"2020-08-07","OBJECT_TYPE":"PAYLOAD","PERIAPSIS":"546.179","BSTAR":"0.00033384000000","MEAN_MOTION_DOT":"0.00004696","ARG_OF_PERICENTER":"74.2707","RCS_SIZE":"LARGE","OBJECT_ID":"2020-055BC","EPOCH":"2022-07-20T13:29:52.575648","PERIOD":"95.591","ECCENTRICITY":"0.00014350","REV_AT_EPOCH":"10908","CLASSIFICATION_TYPE":"U","SITE":"AFETR","TLE_LINE1":"1 46077U 20055BC  22201.56241407  .00004696  00000-0  33384-3 0  9991","INCLINATION":"53.0541","COUNTRY_CODE":"US"},{"COUNTRY_CODE":"US","INCLINATION":"53.0532","PERIOD":"95.592","ECCENTRICITY":"0.00015840","EPOCH":"2022-07-20T20:55:44.219712","OBJECT_ID":"2020-055BD","SITE":"AFETR","CLASSIFICATION_TYPE":"U","TLE_LINE1":"1 46078U 20055BD  22201.87203958 -.00001869  00000-0 -10659-3 0  9996","REV_AT_EPOCH":"10914","ARG_OF_PERICENTER":"66.5457","OBJECT_TYPE":"PAYLOAD","MEAN_MOTION_DOT":"-0.00001869","PERIAPSIS":"546.132","BSTAR":"-0.00010659000000","RCS_SIZE":"LARGE","SEMIMAJOR_AXIS":"6925.364","LAUNCH_DATE":"2020-08-07","TLE_LINE2":"2 46078  53.0532 297.4304 0001584  66.5457 293.5699 15.06395013109146","CENTER_NAME":"EARTH","GP_ID":"208531968","REF_FRAME":"TEME","TIME_SYSTEM":"UTC","MEAN_MOTION_DDOT":"0.0000000000000","MEAN_MOTION":"15.06395013","DECAY_DATE":null,"FILE":"3518363","ELEMENT_SET_NO":"999","MEAN_ANOMALY":"293.5699","MEAN_ELEMENT_THEORY":"SGP4","NORAD_CAT_ID":"46078","EPHEMERIS_TYPE":"0","APOAPSIS":"548.326","RA_OF_ASC_NODE":"297.4304","OBJECT_NAME":"STARLINK-1563"},{"INCLINATION":"53.0531","COUNTRY_CODE":"US","REV_AT_EPOCH":"10913","SITE":"AFETR","CLASSIFICATION_TYPE":"U","TLE_LINE1":"1 46079U 20055BE  22201.59928140  .00001252  00000-0  10292-3 0  9990","EPOCH":"2022-07-20T14:22:57.912960","OBJECT_ID":"2020-055BE","PERIOD":"95.592","ECCENTRICITY":"0.00012270","RCS_SIZE":"LARGE","OBJECT_TYPE":"PAYLOAD","BSTAR":"0.00010292000000","PERIAPSIS":"546.357","MEAN_MOTION_DOT":"0.00001252","ARG_OF_PERICENTER":"93.6583","SEMIMAJOR_AXIS":"6925.341","LAUNCH_DATE":"2020-08-07","GP_ID":"208532218","TLE_LINE2":"2 46079  53.0531 298.6495 0001227  93.6583 266.4547 15.06402365109134","CENTER_NAME":"EARTH","MEAN_MOTION":"15.06402365","DECAY_DATE":null,"TIME_SYSTEM":"UTC","REF_FRAME":"TEME","MEAN_MOTION_DDOT":"0.0000000000000","EPHEMERIS_TYPE":"0","NORAD_CAT_ID":"46079","MEAN_ANOMALY":"266.4547","ELEMENT_SET_NO":"999","MEAN_ELEMENT_THEORY":"SGP4","FILE":"3518363","OBJECT_NAME":"STARLINK-1566","RA_OF_ASC_NODE":"298.6495","APOAPSIS":"548.056"},{"SEMIMAJOR_AXIS":"6925.371","LAUNCH_DATE":"2020-08-07","ARG_OF_PERICENTER":"54.9149","PERIAPSIS":"546.162","OBJECT_TYPE":"PAYLOAD","BSTAR":"-0.00002398000000","MEAN_MOTION_DOT":"-0.00000639","RCS_SIZE":"LARGE","PERIOD":"95.593","ECCENTRICITY":"0.00015510","EPOCH":"2022-07-20T18:09:50.334048","OBJECT_ID":"2020-055BF","SITE":"AFETR","CLASSIFICATION_TYPE":"U","TLE_LINE1":"1 46080U 20055BF  22201.75683257 -.00000639  00000-0 -23980-4 0  9996","REV_AT_EPOCH":"10913","COUNTRY_CODE":"US","INCLINATION":"53.0550","APOAPSIS":"548.310","RA_OF_ASC_NODE":"297.9251","OBJECT_NAME":"STARLINK-1568","FILE":"3518363","MEAN_ANOMALY":"305.1985","ELEMENT_SET_NO":"999","MEAN_ELEMENT_THEORY":"SGP4","NORAD_CAT_ID":"46080","EPHEMERIS_TYPE":"0","TIME_SYSTEM":"UTC","REF_FRAME":"TEME","MEAN_MOTION_DDOT":"0.0000000000000","DECAY_DATE":null,"MEAN_MOTION":"15.06392666","CENTER_NAME":"EARTH","TLE_LINE2":"2 46080  53.0550 297.9251 0001551  54.9149 305.1985 15.06392666109136","GP_ID":"208532969"},{"INCLINATION":"53.0548","COUNTRY_CODE":"US","REV_AT_EPOCH":"10912","TLE_LINE1":"1 46081U 20055BG  22201.59190014  .00005702  00000-0  40124-3 0  9995","CLASSIFICATION_TYPE":"U","SITE":"AFETR","OBJECT_ID":"2020-055BG","EPOCH":"2022-07-20T14:12:20.172096","ECCENTRICITY":"0.00014250","PERIOD":"95.591","RCS_SIZE":"LARGE","BSTAR":"0.00040124000000","OBJECT_TYPE":"PAYLOAD","PERIAPSIS":"546.187","MEAN_MOTION_DOT":"0.00005702","ARG_OF_PERICENTER":"67.7794","LAUNCH_DATE":"2020-08-07","SEMIMAJOR_AXIS":"6925.309","GP_ID":"208501235","CENTER_NAME":"EARTH","TLE_LINE2":"2 46081  53.0548 298.6745 0001425  67.7794 292.3347 15.06412989109127","DECAY_DATE":null,"MEAN_MOTION":"15.06412989","MEAN_MOTION_DDOT":"0.0000000000000","REF_FRAME":"TEME","TIME_SYSTEM":"UTC","EPHEMERIS_TYPE":"0","NORAD_CAT_ID":"46081","MEAN_ELEMENT_THEORY":"SGP4","ELEMENT_SET_NO":"999","MEAN_ANOMALY":"292.3347","FILE":"3518111","OBJECT_NAME":"STARLINK-1571","RA_OF_ASC_NODE":"298.6745","APOAPSIS":"548.161"},{"MEAN_MOTION":"15.06395622","DECAY_DATE":null,"REF_FRAME":"TEME","TIME_SYSTEM":"UTC","MEAN_MOTION_DDOT":"0.0000000000000","GP_ID":"208531468","TLE_LINE2":"2 46082  53.0556 298.2937 0001407  89.0382 271.0768 15.06395622109143","CENTER_NAME":"EARTH","OBJECT_NAME":"STARLINK-1578","RA_OF_ASC_NODE":"298.2937","APOAPSIS":"548.201","EPHEMERIS_TYPE":"0","NORAD_CAT_ID":"46082","ELEMENT_SET_NO":"999","MEAN_ANOMALY":"271.0768","MEAN_ELEMENT_THEORY":"SGP4","FILE":"3518363","REV_AT_EPOCH":"10914","CLASSIFICATION_TYPE":"U","SITE":"AFETR","TLE_LINE1":"1 46082U 20055BH  22201.68037784  .00000808  00000-0  73162-4 0  9991","EPOCH":"2022-07-20T16:19:44.645376","OBJECT_ID":"2020-055BH","PERIOD":"95.592","ECCENTRICITY":"0.00014070","INCLINATION":"53.0556","COUNTRY_CODE":"US","SEMIMAJOR_AXIS":"6925.362","LAUNCH_DATE":"2020-08-07","RCS_SIZE":"LARGE","OBJECT_TYPE":"PAYLOAD","BSTAR":"0.00007316200000","PERIAPSIS":"546.253","MEAN_MOTION_DOT":"0.00000808","ARG_OF_PERICENTER":"89.0382"},{"APOAPSIS":"548.122","RA_OF_ASC_NODE":"298.7124","OBJECT_NAME":"STARLINK-1579","FILE":"3518111","MEAN_ELEMENT_THEORY":"SGP4","ELEMENT_SET_NO":"999","MEAN_ANOMALY":"272.6906","NORAD_CAT_ID":"46083","EPHEMERIS_TYPE":"0","MEAN_MOTION_DDOT":"0.0000000000000","TIME_SYSTEM":"UTC","REF_FRAME":"TEME","MEAN_MOTION":"15.06395804","DECAY_DATE":null,"TLE_LINE2":"2 46083  53.0571 298.7124 0001293  87.4231 272.6906 15.06395804109123","CENTER_NAME":"EARTH","GP_ID":"208502222","LAUNCH_DATE":"2020-08-07","SEMIMAJOR_AXIS":"6925.361","ARG_OF_PERICENTER":"87.4231","OBJECT_TYPE":"PAYLOAD","BSTAR":"0.00017471000000","PERIAPSIS":"546.331","MEAN_MOTION_DOT":"0.00002322","RCS_SIZE":"LARGE","PERIOD":"95.592","ECCENTRICITY":"0.00012930","OBJECT_ID":"2020-055BJ","EPOCH":"2022-07-20T14:01:43.957920","TLE_LINE1":"1 46083U 20055BJ  22201.58453655  .00002322  00000-0  17471-3 0  9993","SITE":"AFETR","CLASSIFICATION_TYPE":"U","REV_AT_EPOCH":"10912","COUNTRY_CODE":"US","INCLINATION":"53.0571"},{"OBJECT_ID":"2020-057A","EPOCH":"2022-07-20T19:36:06.261696","ECCENTRICITY":"0.00015750","PERIOD":"95.591","REV_AT_EPOCH":"10620","TLE_LINE1":"1 46117U 20057A   22201.81673914  .00004523  00000-0  32225-3 0  9990","CLASSIFICATION_TYPE":"U","SITE":"AFETR","INCLINATION":"53.0541","COUNTRY_CODE":"US","LAUNCH_DATE":"2020-08-18","SEMIMAJOR_AXIS":"6925.317","PERIAPSIS":"546.092","OBJECT_TYPE":"PAYLOAD","MEAN_MOTION_DOT":"0.00004523","BSTAR":"0.00032225000000","ARG_OF_PERICENTER":"72.1307","RCS_SIZE":"LARGE","DECAY_DATE":null,"MEAN_MOTION":"15.06410187","MEAN_MOTION_DDOT":"0.0000000000000","TIME_SYSTEM":"UTC","REF_FRAME":"TEME","GP_ID":"208532222","TLE_LINE2":"2 46117  53.0541 137.6606 0001575  72.1307 287.9854 15.06410187106201","CENTER_NAME":"EARTH","APOAPSIS":"548.273","OBJECT_NAME":"STARLINK-1585","RA_OF_ASC_NODE":"137.6606","MEAN_ELEMENT_THEORY":"SGP4","MEAN_ANOMALY":"287.9854","ELEMENT_SET_NO":"999","FILE":"3518363","EPHEMERIS_TYPE":"0","NORAD_CAT_ID":"46117"}];
